IRIDIUM 116             
1 43072U 17083C   24014.96878491  .00000133  00000+0  40388-4 0  9991
2 43072  86.3986 331.5573 0002147  87.9018 272.2423 14.34216683317430
IRIDIUM 130             
1 43073U 17083D   24014.93707237 -.00000117  00000+0 -48805-4 0  9994
2 43073  86.3990 331.7598 0001993  77.3592 282.7827 14.34217763317370
IRIDIUM 151             
1 43074U 17083E   24014.98146924  .00000273  00000+0  90379-4 0  9994
2 43074  86.3990 331.5892 0002369  87.7342 272.4125 14.34217117317406
IRIDIUM 134             
1 43075U 17083F   24015.36836241  .00000664  00000+0  22990-3 0  9993
2 43075  86.3991 331.4238 0002061  81.2378 278.9051 14.34223232317424
IRIDIUM 137             
1 43076U 17083G   24014.89267389 -.00000115  00000+0 -47958-4 0  9997
2 43076  86.3985 331.6978 0001967  94.4689 265.6732 14.34216154317420
IRIDIUM 141             
1 43077U 17083H   24015.37470650  .00000253  00000+0  83148-4 0  9991
2 43077  86.3986 331.3773 0002267  85.2295 274.9160 14.34220923317491
IRIDIUM 153             
1 43078U 17083J   24015.25712207 -.00000042  00000+0 -22074-4 0  9995
2 43078  86.3976 299.8791 0002375  79.9764 280.1700 14.34217273318584
IRIDIUM 131             
1 43079U 17083K   24014.94341661  .00000031  00000+0  39326-5 0  9998
2 43079  86.3992 331.6841 0002210  84.9408 275.2040 14.34216869317360
